*******************************************************************************
JPL/HORIZONS                  ATLAS (C/2025 N1)            2025-Sep-24 09:08:19
Rec #:90004916 (+COV) Soln.date: 2025-Sep-08_18:29:13     # obs: 603 (104 days)
 
IAU76/J2000 helio. ecliptic osc. elements (au, days, deg., period=Julian yrs):
 
  EPOCH=  2460878.5 ! 2025-Jul-22.0000000 (TDB)    RMSW= n.a.
   EC= 6.139587836355706   QR= 1.356419039495192   TP= 2460977.9814392594
   OM= 322.1568699043938   W= 128.0099421020839    IN= 175.1131015287974
   A= -.26391591751781     MA= -3.18224798181177   ADIST= 9.999999E99
   PER= 9.999999E99        N= 7.269519353          ANGMOM= .053532183
   DAN= -3.48262           DDN= 2.02568            L= 194.0456433
   B= 3.8486331            MOID= .36415401         TP= 2025-Oct-29.4814392594
 
Comet physical (GM= km^3/s^2; RAD= km):
   GM= n.a.                RAD= n.a.
   M1=  12.3     M2=  n.a.     k1=  4.5    k2= n.a.     PHCOF= n.a.
COMET comments 
1: soln ref.= JPL#26, data arc: 2025-05-15 to 2025-08-27
2: k1=4.5;
*******************************************************************************


*******************************************************************************
Ephemeris / WWW_USER Wed Sep 24 09:08:20 2025 Pasadena, USA      / Horizons    
*******************************************************************************
Target body name: ATLAS (C/2025 N1)               {source: JPL#26}
Center body name: Earth (399)                     {source: DE441}
Center-site name: Cerro Paranal
*******************************************************************************
Start time      : A.D. 2025-Sep-19 22:00:00.0000 UT      
Stop  time      : A.D. 2025-Sep-20 04:00:00.0000 UT      
Step-size       : 1 minutes
*******************************************************************************
Target pole/equ : undefined
Target radii    : undefined                                                    
Center geodetic : 289.5957, -24.6272128, 2.63514  {E-lon(deg),Lat(deg),Alt(km)}
Center cylindric: 289.5957,5803.73915,-2642.69127 {E-lon(deg),Dxy(km),Dz(km)}
Center pole/equ : ITRF93                          {East-longitude positive}
Center radii    : 6378.137, 6378.137, 6356.752 km {Equator_a, b, pole_c}       
Target primary  : Sun
Vis. interferer : MOON (R_eq= 1737.400) km        {source: DE441}
Rel. light bend : Sun                             {source: DE441}
Rel. lght bnd GM: 1.3271E+11 km^3/s^2                                          
Small-body perts: Yes                             {source: SB441-N16}
Atmos refraction: NO (AIRLESS)
RA format       : HMS
Time format     : BOTH
Calendar mode   : Mixed Julian/Gregorian
RTS-only print  : NO       
EOP file        : eop.250923.p251219                                           
EOP coverage    : DATA-BASED 1962-JAN-20 TO 2025-SEP-23. PREDICTS-> 2025-DEC-18
Units conversion: 1 au= 149597870.700 km, c= 299792.458 km/s, 1 day= 86400.0 s 
Table cut-offs 1: Elevation ( 20.0deg=YES),Airmass (< 2.800=YES),Daylight (NO )
Table cut-offs 2: Solar elongation (  0.0,180.0=NO ),Local Hour Angle( 0.0=NO )
Table cut-offs 3: RA/DEC angular rate (     0.0=NO )                           
Table format    : Comma Separated Values (spreadsheet)
*******************************************************************************
Initial IAU76/J2000 heliocentric ecliptic osculating elements (au, days, deg.):
  EPOCH=  2460878.5 ! 2025-Jul-22.0000000 (TDB)    RMSW= n.a.                  
   EC= 6.139587836355706   QR= 1.356419039495192   TP= 2460977.9814392594      
   OM= 322.1568699043938   W= 128.0099421020839    IN= 175.1131015287974       
  Equivalent ICRF heliocentric cartesian coordinates (au, au/d):
   X=-1.616994368572366E-02  Y=-3.597814381333365E+00  Z=-1.278571631651561E+00
  VX=-1.386152884723053E-02 VY= 3.077166736535444E-02 VZ= 1.171310239604216E-02
Comet physical (GM= km^3/s^2; RAD= km):                                        
   GM= n.a.                RAD= n.a.                                           
   M1=  12.3     M2=  n.a.     k1=  4.5    k2= n.a.     PHCOF= n.a.            
************************************************************************************************************************************************************************************
 Date__(UT)__HR:MN:SS, Date_________JDUT, , , R.A._____(ICRF), DEC______(ICRF),  dRA*cosD, d(DEC)/dt,    T-mag,  N-mag,                r,       rdot,             delta,     deldot,
************************************************************************************************************************************************************************************
$$SOE
 2025-Sep-19 22:00:00, 2460938.416666667,*, , 14 47 31.222177, -12 14 31.04358,  -76.0729,  17.95620,   15.650,   n.a.,   1.978179462522,-45.4181719,  2.53154118873408, -3.6875377,
 2025-Sep-19 22:01:00, 2460938.417361111,*, , 14 47 31.135720, -12 14 30.74219,  -76.0704,  17.95684,   15.650,   n.a.,   1.978161246266,-45.4178177,  2.53153970990685, -3.6861611,
 2025-Sep-19 22:02:00, 2460938.418055556,*, , 14 47 31.049265, -12 14 30.44078,  -76.0679,  17.95748,   15.650,   n.a.,   1.978143030151,-45.4174635,  2.53153823163084, -3.6847892,
 2025-Sep-19 22:03:00, 2460938.418750000,*, , 14 47 30.962813, -12 14 30.13936,  -76.0653,  17.95812,   15.650,   n.a.,   1.978124814179,-45.4171093,  2.53153675390412, -3.6834222,
 2025-Sep-19 22:04:00, 2460938.419444445,*, , 14 47 30.876364, -12 14 29.83794,  -76.0628,  17.95876,   15.650,   n.a.,   1.978106598349,-45.4167550,  2.53153527672478, -3.6820599,
 2025-Sep-19 22:05:00, 2460938.420138889,*, , 14 47 30.789918, -12 14 29.53650,  -76.0602,  17.95939,   15.650,   n.a.,   1.978088382662,-45.4164008,  2.53153380009088, -3.6807025,
 2025-Sep-19 22:06:00, 2460938.420833333,*, , 14 47 30.703475, -12 14 29.23505,  -76.0576,  17.96003,   15.650,   n.a.,   1.978070167116,-45.4160465,  2.53153232400047, -3.6793500,
 2025-Sep-19 22:07:00, 2460938.421527778,*, , 14 47 30.617035, -12 14 28.93360,  -76.0550,  17.96066,   15.650,   n.a.,   1.978051951713,-45.4156922,  2.53153084845160, -3.6780023,
 2025-Sep-19 22:08:00, 2460938.422222222,*, , 14 47 30.530598, -12 14 28.63213,  -76.0524,  17.96129,   15.650,   n.a.,   1.978033736451,-45.4153379,  2.53152937344230, -3.6766596,
 2025-Sep-19 22:09:00, 2460938.422916667,*, , 14 47 30.444164, -12 14 28.33065,  -76.0498,  17.96191,   15.650,   n.a.,   1.978015521332,-45.4149836,  2.53152789897058, -3.6753218,
 2025-Sep-19 22:10:00, 2460938.423611111,*, , 14 47 30.357733, -12 14 28.02916,  -76.0471,  17.96254,   15.650,   n.a.,   1.977997306355,-45.4146293,  2.53152642503447, -3.6739890,
 2025-Sep-19 22:11:00, 2460938.424305555,*, , 14 47 30.271305, -12 14 27.72766,  -76.0445,  17.96316,   15.650,   n.a.,   1.977979091521,-45.4142750,  2.53152495163195, -3.6726612,
 2025-Sep-19 22:12:00, 2460938.425000000,*, , 14 47 30.184880, -12 14 27.42615,  -76.0418,  17.96378,   15.650,   n.a.,   1.977960876828,-45.4139207,  2.53152347876102, -3.6713385,
 2025-Sep-19 22:13:00, 2460938.425694444,*, , 14 47 30.098458, -12 14 27.12463,  -76.0391,  17.96440,   15.650,   n.a.,   1.977942662278,-45.4135663,  2.53152200641965, -3.6700208,
 2025-Sep-19 22:14:00, 2460938.426388889,*, , 14 47 30.012040, -12 14 26.82310,  -76.0365,  17.96502,   15.650,   n.a.,   1.977924447870,-45.4132120,  2.53152053460581, -3.6687081,
 2025-Sep-19 22:15:00, 2460938.427083333,*, , 14 47 29.925624, -12 14 26.52156,  -76.0338,  17.96563,   15.650,   n.a.,   1.977906233604,-45.4128576,  2.53151906331746, -3.6674006,
 2025-Sep-19 22:16:00, 2460938.427777778,*, , 14 47 29.839211, -12 14 26.22001,  -76.0310,  17.96624,   15.650,   n.a.,   1.977888019480,-45.4125033,  2.53151759255254, -3.6660982,
 2025-Sep-19 22:17:00, 2460938.428472222,*, , 14 47 29.752802, -12 14 25.91845,  -76.0283,  17.96685,   15.650,   n.a.,   1.977869805499,-45.4121489,  2.53151612230898, -3.6648010,
 2025-Sep-19 22:18:00, 2460938.429166667,*, , 14 47 29.666396, -12 14 25.61688,  -76.0256,  17.96746,   15.650,   n.a.,   1.977851591660,-45.4117945,  2.53151465258470, -3.6635090,
 2025-Sep-19 22:19:00, 2460938.429861111,*, , 14 47 29.579992, -12 14 25.31530,  -76.0228,  17.96806,   15.650,   n.a.,   1.977833377963,-45.4114401,  2.53151318337763, -3.6622222,
 2025-Sep-19 22:20:00, 2460938.430555556,*, , 14 47 29.493592, -12 14 25.01371,  -76.0201,  17.96867,   15.650,   n.a.,   1.977815164408,-45.4110857,  2.53151171468566, -3.6609406,
 2025-Sep-19 22:21:00, 2460938.431250000,*, , 14 47 29.407196, -12 14 24.71211,  -76.0173,  17.96927,   15.650,   n.a.,   1.977796950995,-45.4107312,  2.53151024650669, -3.6596643,
 2025-Sep-19 22:22:00, 2460938.431944444,*, , 14 47 29.320802, -12 14 24.41050,  -76.0145,  17.96986,   15.650,   n.a.,   1.977778737725,-45.4103768,  2.53150877883860, -3.6583933,
 2025-Sep-19 22:23:00, 2460938.432638889,*, , 14 47 29.234411, -12 14 24.10888,  -76.0117,  17.97046,   15.650,   n.a.,   1.977760524597,-45.4100223,  2.53150731167925, -3.6571276,
 2025-Sep-19 22:24:00, 2460938.433333333,*, , 14 47 29.148024, -12 14 23.80725,  -76.0089,  17.97105,   15.650,   n.a.,   1.977742311611,-45.4096679,  2.53150584502651, -3.6558672,
 2025-Sep-19 22:25:00, 2460938.434027778,*, , 14 47 29.061640, -12 14 23.50561,  -76.0061,  17.97165,   15.650,   n.a.,   1.977724098767,-45.4093134,  2.53150437887823, -3.6546123,
 2025-Sep-19 22:26:00, 2460938.434722222,*, , 14 47 28.975259, -12 14 23.20396,  -76.0033,  17.97223,   15.650,   n.a.,   1.977705886066,-45.4089589,  2.53150291323224, -3.6533627,
 2025-Sep-19 22:27:00, 2460938.435416667,*, , 14 47 28.888882, -12 14 22.90230,  -76.0004,  17.97282,   15.650,   n.a.,   1.977687673507,-45.4086045,  2.53150144808639, -3.6521186,
 2025-Sep-19 22:28:00, 2460938.436111111,*, , 14 47 28.802508, -12 14 22.60063,  -75.9976,  17.97341,   15.650,   n.a.,   1.977669461090,-45.4082500,  2.53149998343848, -3.6508799,
